/EX
SB KEPS @ AMSAT  $ORB13038.N
2Line Orbital Elements 13038.AMSAT

HR AMSAT ORBITAL ELEMENTS FOR AMATEUR SATELLITES IN NASA FORMAT
Send SUBSCRIBE KEPS/UNSUBSCRIBE KEPS to majordomo at amsat.org only
BID: ORB13038.N

DECODE 2-LINE ELSETS WITH THE FOLLOWING KEY:
1 AAAAAU 00  0  0 BBBBB.BBBBBBBB  .CCCCCCCC  00000-0  00000-0 0  DDDZ
2 AAAAA EEE.EEEE FFF.FFFF GGGGGGG HHH.HHHH III.IIII JJ.JJJJJJJJKKKKKZ
KEY: A-CATALOGNUM B-EPOCHTIME C-DECAY D-ELSETNUM E-INCLINATION F-RAAN
G-ECCENTRICITY H-ARGPERIGEE I-MNANOM J-MNMOTION K-ORBITNUM Z-CHECKSUM

TO ALL RADIO AMATEURS BT

AO-07
1 07530U 74089B   13037.56641392 -.00000069  00000-0 -15989-3 0  6004
2 07530 101.4222 031.8656 0011918 181.8850 325.6435 12.53594632749412
FO-29
1 24278U 96046B   13038.41973365 -.00000041  00000-0 -82386-5 0   429
2 24278 098.5757 114.2483 0350917 140.2506 222.4918 13.52995841813762
SO-33
1 25509U 98061B   13037.56224296  .00000350  00000-0  58761-4 0  4270
2 25509 031.4320 087.1305 0351561 094.4849 054.8766 14.28957918746196
RS-22
1 27939U 03042A   13038.56206531  .00000442  00000-0  92218-4 0  1451
2 27939 097.7983 233.1724 0012395 237.4225 122.5782 14.64313854500328
VO-52
1 28650U 05017B   13038.01963980  .00000837  00000-0  10720-3 0  3372
2 28650 097.5772 063.2726 0026086 351.9672 008.1157 14.83553269419788
HO-68
1 36122U 09072B   13038.83792173 -.00000044  00000-0  00000 0 0  2639
2 36122 100.3256 099.0683 0007294 292.9730 067.0604 13.16301851151393
UO-11
1 14781U 84021B   13038.23582560  .00000400  00000-0  58777-4 0   962
2 14781 097.9205 101.3100 0008398 359.7914 000.3293 14.80747414554705
AO-16
1 20439U 90005D   13037.84988753  .00000070  00000-0  41870-4 0  6693
2 20439 098.4600 340.9895 0011115 178.6630 215.1778 14.32136533203585
LO-19
1 20442U 90005G   13037.98247944  .00000073  00000-0  42570-4 0  6020
2 20442 098.4281 343.3266 0012258 169.9426 250.2000 14.32350133203793
AO-27
1 22825U 93061C   13038.85430226  .00000067  00000-0  43450-4 0  3080
2 22825 098.6057 344.3413 0007435 312.3791 081.3484 14.29531685 10152
IO-26
1 22826U 93061D   13037.97425476  .00000069  00000-0  43900-4 0   645
2 22826 098.5997 343.7868 0007904 307.7663 108.8662 14.29812207 10154
GO-32
1 25397U 98043D   13038.12732795 -.00000040  00000-0  66972-6 0  9936
2 25397 098.3953 011.6587 0000811 009.2231 350.8966 14.23320339757444
NO-44
1 26931U 01043C   13037.99833030 -.00000032  00000-0  19602-4 0  2539
2 26931 067.0502 235.1147 0004926 272.9497 087.1055 14.29885080592813
SO-50
1 27607U 02058C   13037.80628584  .00000259  00000-0  60817-4 0  9860
2 27607 064.5588 301.0150 0062690 199.0184 160.8552 14.72755405544511
CO-55
1 27844U 03031E   13038.66099226  .00000150  00000-0  88964-4 0  5741
2 27844 098.7033 049.6134 0008729 260.6526 164.3762 14.21156515498334
CO-57
1 27848U 03031J   13038.00073043  .00000125  00000-0  78215-4 0  5214
2 27848 098.7117 048.4077 0008597 269.2256 144.1264 14.20890105498176
AO-51
1 28375U 04025K   13038.46972944  .00000137  00000-0  53454-4 0  4807
2 28375 098.1817 359.2537 0084563 048.6470 312.1942 14.41064223452651
