Satellite: AO-07
Catalog number: 07530
Epoch time:      13037.56641392
Element set:     600
Inclination:      101.4222 deg
RA of node:       031.8656 deg
Eccentricity:    0.0011918
Arg of perigee:   181.8850 deg
Mean anomaly:     325.6435 deg
Mean motion:   12.53594632 rev/day
Decay rate:       -6.9e-07 rev/day^2
Epoch rev:           74941
Checksum:              290

Satellite: FO-29
Catalog number: 24278
Epoch time:      13038.41973365
Element set:      42
Inclination:      098.5757 deg
RA of node:       114.2483 deg
Eccentricity:    0.0350917
Arg of perigee:   140.2506 deg
Mean anomaly:     222.4918 deg
Mean motion:   13.52995841 rev/day
Decay rate:       -4.1e-07 rev/day^2
Epoch rev:           81376
Checksum:              317

Satellite: SO-33
Catalog number: 25509
Epoch time:      13037.56224296
Element set:     427
Inclination:      031.4320 deg
RA of node:       087.1305 deg
Eccentricity:    0.0351561
Arg of perigee:   094.4849 deg
Mean anomaly:     054.8766 deg
Mean motion:   14.28957918 rev/day
Decay rate:       3.50e-06 rev/day^2
Epoch rev:           74619
Checksum:              321

Satellite: RS-22
Catalog number: 27939
Epoch time:      13038.56206531
Element set:     145
Inclination:      097.7983 deg
RA of node:       233.1724 deg
Eccentricity:    0.0012395
Arg of perigee:   237.4225 deg
Mean anomaly:     122.5782 deg
Mean motion:   14.64313854 rev/day
Decay rate:       4.42e-06 rev/day^2
Epoch rev:           50032
Checksum:              293

Satellite: VO-52
Catalog number: 28650
Epoch time:      13038.01963980
Element set:     337
Inclination:      097.5772 deg
RA of node:       063.2726 deg
Eccentricity:    0.0026086
Arg of perigee:   351.9672 deg
Mean anomaly:     008.1157 deg
Mean motion:   14.83553269 rev/day
Decay rate:       8.37e-06 rev/day^2
Epoch rev:           41978
Checksum:              335

Satellite: HO-68
Catalog number: 36122
Epoch time:      13038.83792173
Element set:     263
Inclination:      100.3256 deg
RA of node:       099.0683 deg
Eccentricity:    0.0007294
Arg of perigee:   292.9730 deg
Mean anomaly:     067.0604 deg
Mean motion:   13.16301851 rev/day
Decay rate:       -4.4e-07 rev/day^2
Epoch rev:           15139
Checksum:              291

/EX
SB KEPS @ AMSAT  $ORB13038.D
Orbital Elements  13038.MICROS

HR AMSAT ORBITAL ELEMENTS FOR THE MICROSATS
FROM WA5QGD FORT WORTH,TX February 7, 2013
BID: ORB13038.D
TO ALL RADIO AMATEURS BT

Satellite: UO-11
Catalog number: 14781
Epoch time:      13038.23582560
Element set:      96
Inclination:      097.9205 deg
RA of node:       101.3100 deg
Eccentricity:    0.0008398
Arg of perigee:   359.7914 deg
Mean anomaly:     000.3293 deg
Mean motion:   14.80747414 rev/day
Decay rate:       4.00e-06 rev/day^2
Epoch rev:           55470
Checksum:              280

Satellite: AO-16
Catalog number: 20439
Epoch time:      13037.84988753
Element set:     669
Inclination:      098.4600 deg
RA of node:       340.9895 deg
Eccentricity:    0.0011115
Arg of perigee:   178.6630 deg
Mean anomaly:     215.1778 deg
Mean motion:   14.32136533 rev/day
Decay rate:        7.0e-07 rev/day^2
Epoch rev:           20358
Checksum:              315

Satellite: LO-19
Catalog number: 20442
Epoch time:      13037.98247944
Element set:     602
Inclination:      098.4281 deg
RA of node:       343.3266 deg
Eccentricity:    0.0012258
Arg of perigee:   169.9426 deg
Mean anomaly:     250.2000 deg
Mean motion:   14.32350133 rev/day
Decay rate:        7.3e-07 rev/day^2
Epoch rev:           20379
Checksum:              281

Satellite: AO-27
Catalog number: 22825
Epoch time:      13038.85430226
Element set:     308
Inclination:      098.6057 deg
RA of node:       344.3413 deg
Eccentricity:    0.0007435
Arg of perigee:   312.3791 deg
Mean anomaly:     081.3484 deg
Mean motion:   14.29531685 rev/day
Decay rate:        6.7e-07 rev/day^2
Epoch rev:            1015
Checksum:              289

Satellite: IO-26
Catalog number: 22826
Epoch time:      13037.97425476
Element set:      64
Inclination:      098.5997 deg
RA of node:       343.7868 deg
Eccentricity:    0.0007904
Arg of perigee:   307.7663 deg
Mean anomaly:     108.8662 deg
Mean motion:   14.29812207 rev/day
Decay rate:        6.9e-07 rev/day^2
Epoch rev:            1015
Checksum:              334

Satellite: GO-32
Catalog number: 25397
Epoch time:      13038.12732795
Element set:     993
Inclination:      098.3953 deg
RA of node:       011.6587 deg
Eccentricity:    0.0000811
Arg of perigee:   009.2231 deg
Mean anomaly:     350.8966 deg
Mean motion:   14.23320339 rev/day
Decay rate:       -4.0e-07 rev/day^2
Epoch rev:           75744
Checksum:              305

Satellite: NO-44
Catalog number: 26931
Epoch time:      13037.99833030
Element set:     253
Inclination:      067.0502 deg
RA of node:       235.1147 deg
Eccentricity:    0.0004926
Arg of perigee:   272.9497 deg
Mean anomaly:     087.1055 deg
Mean motion:   14.29885080 rev/day
Decay rate:       -3.2e-07 rev/day^2
Epoch rev:           59281
Checksum:              305

Satellite: SO-50
Catalog number: 27607
Epoch time:      13037.80628584
Element set:     986
Inclination:      064.5588 deg
RA of node:       301.0150 deg
Eccentricity:    0.0062690
Arg of perigee:   199.0184 deg
Mean anomaly:     160.8552 deg
Mean motion:   14.72755405 rev/day
Decay rate:       2.59e-06 rev/day^2
Epoch rev:           54451
Checksum:              318

Satellite: CO-55
Catalog number: 27844
Epoch time:      13038.66099226
Element set:     574
Inclination:      098.7033 deg
RA of node:       049.6134 deg
Eccentricity:    0.0008729
Arg of perigee:   260.6526 deg
Mean anomaly:     164.3762 deg
Mean motion:   14.21156515 rev/day
Decay rate:       1.50e-06 rev/day^2
Epoch rev:           49833
Checksum:              319

Satellite: CO-57
Catalog number: 27848
Epoch time:      13038.00073043
Element set:     521
Inclination:      098.7117 deg
RA of node:       048.4077 deg
Eccentricity:    0.0008597
Arg of perigee:   269.2256 deg
Mean anomaly:     144.1264 deg
Mean motion:   14.20890105 rev/day
Decay rate:       1.25e-06 rev/day^2
Epoch rev:           49817
Checksum:              304

Satellite: AO-51
Catalog number: 28375
Epoch time:      13038.46972944
Element set:     480
Inclination:      098.1817 deg
RA of node:       359.2537 deg
Eccentricity:    0.0084563
Arg of perigee:   048.6470 deg
Mean anomaly:     312.1942 deg
Mean motion:   14.41064223 rev/day
Decay rate:       1.37e-06 rev/day^2
Epoch rev:           45265
Checksum:              318

